start=new Date('2022-01-28T00:00:00.000Z').valueOf();
sats=[{"MEAN_ELEMENT_THEORY":"SGP4","MEAN_MOTION":"15.06406914","PERIAPSIS":"545.823","MEAN_MOTION_DOT":"-0.00000901","RA_OF_ASC_NODE":"169.9345","MEAN_MOTION_DDOT":"0.0000000000000","DECAY_DATE":null,"EPOCH":"2022-01-27T13:30:47.369664","SEMIMAJOR_AXIS":"6925.327","OBJECT_NAME":"STARLINK-1167","APOAPSIS":"548.562","GP_ID":"194739999","REV_AT_EPOCH":"11033","RCS_SIZE":"LARGE","INCLINATION":"53.0546","BSTAR":"-0.00004159300000","MEAN_ANOMALY":"278.1061","NORAD_CAT_ID":"45071","OBJECT_TYPE":"PAYLOAD","OBJECT_ID":"2020-006AD","TIME_SYSTEM":"UTC","REF_FRAME":"TEME","LAUNCH_DATE":"2020-01-29","CLASSIFICATION_TYPE":"U","ECCENTRICITY":"0.00019770","TLE_LINE2":"2 45071  53.0546 169.9345 0001977  82.0153 278.1061 15.06406914110331","CENTER_NAME":"EARTH","FILE":"3284946","EPHEMERIS_TYPE":"0","TLE_LINE1":"1 45071U 20006AD  22027.56304826 -.00000901  00000-0 -41593-4 0  9990","PERIOD":"95.592","ARG_OF_PERICENTER":"82.0153","COUNTRY_CODE":"US","SITE":"AFETR","ELEMENT_SET_NO":"999"},{"TLE_LINE2":"2 45072  53.0554 169.9053 0002063  91.5978 268.5247 15.06396313110334","CENTER_NAME":"EARTH","ECCENTRICITY":"0.00020630","LAUNCH_DATE":"2020-01-29","CLASSIFICATION_TYPE":"U","TIME_SYSTEM":"UTC","OBJECT_ID":"2020-006AE","REF_FRAME":"TEME","NORAD_CAT_ID":"45072","MEAN_ANOMALY":"268.5247","OBJECT_TYPE":"PAYLOAD","SITE":"AFETR","COUNTRY_CODE":"US","ARG_OF_PERICENTER":"91.5978","ELEMENT_SET_NO":"999","TLE_LINE1":"1 45072U 20006AE  22027.56673299 -.00000294  00000-0 -82684-6 0  9997","PERIOD":"95.592","FILE":"3284946","EPHEMERIS_TYPE":"0","EPOCH":"2022-01-27T13:36:05.730336","RA_OF_ASC_NODE":"169.9053","MEAN_MOTION_DDOT":"0.0000000000000","DECAY_DATE":null,"MEAN_MOTION_DOT":"-0.00000294","MEAN_ELEMENT_THEORY":"SGP4","PERIAPSIS":"545.796","MEAN_MOTION":"15.06396313","INCLINATION":"53.0554","BSTAR":"-0.00000082684000","RCS_SIZE":"LARGE","REV_AT_EPOCH":"11033","APOAPSIS":"548.654","OBJECT_NAME":"STARLINK-1168","SEMIMAJOR_AXIS":"6925.360","GP_ID":"194740242"},{"GP_ID":"194738998","SEMIMAJOR_AXIS":"6925.331","OBJECT_NAME":"STARLINK-1170","APOAPSIS":"548.586","BSTAR":"0.00002131300000","INCLINATION":"53.0518","REV_AT_EPOCH":"11033","RCS_SIZE":"LARGE","MEAN_MOTION_DOT":"0.00000036","MEAN_MOTION":"15.06405827","PERIAPSIS":"545.806","MEAN_ELEMENT_THEORY":"SGP4","EPOCH":"2022-01-27T14:13:14.888352","DECAY_DATE":null,"MEAN_MOTION_DDOT":"0.0000000000000","RA_OF_ASC_NODE":"169.7853","EPHEMERIS_TYPE":"0","FILE":"3284946","ELEMENT_SET_NO":"999","ARG_OF_PERICENTER":"87.2164","COUNTRY_CODE":"US","SITE":"AFETR","PERIOD":"95.592","TLE_LINE1":"1 45073U 20006AF  22027.59253343  .00000036  00000-0  21313-4 0  9997","REF_FRAME":"TEME","OBJECT_ID":"2020-006AF","TIME_SYSTEM":"UTC","OBJECT_TYPE":"PAYLOAD","MEAN_ANOMALY":"272.9055","NORAD_CAT_ID":"45073","CENTER_NAME":"EARTH","TLE_LINE2":"2 45073  53.0518 169.7853 0002007  87.2164 272.9055 15.06405827110335","ECCENTRICITY":"0.00020070","LAUNCH_DATE":"2020-01-29","CLASSIFICATION_TYPE":"U"},{"MEAN_MOTION_DOT":"-0.00000566","PERIAPSIS":"545.715","MEAN_MOTION":"15.06398446","MEAN_ELEMENT_THEORY":"SGP4","EPOCH":"2022-01-27T13:52:01.340256","DECAY_DATE":null,"RA_OF_ASC_NODE":"169.8748","MEAN_MOTION_DDOT":"0.0000000000000","GP_ID":"194739243","APOAPSIS":"548.722","OBJECT_NAME":"STARLINK-1172","SEMIMAJOR_AXIS":"6925.353","BSTAR":"-0.00001908900000","INCLINATION":"53.0543","RCS_SIZE":"LARGE","REV_AT_EPOCH":"11033","REF_FRAME":"TEME","TIME_SYSTEM":"UTC","OBJECT_ID":"2020-006AG","OBJECT_TYPE":"PAYLOAD","NORAD_CAT_ID":"45074","MEAN_ANOMALY":"274.0391","CENTER_NAME":"EARTH","TLE_LINE2":"2 45074  53.0543 169.8748 0002171  86.0846 274.0391 15.06398446110338","LAUNCH_DATE":"2020-01-29","CLASSIFICATION_TYPE":"U","ECCENTRICITY":"0.00021710","FILE":"3284946","EPHEMERIS_TYPE":"0","ELEMENT_SET_NO":"999","SITE":"AFETR","ARG_OF_PERICENTER":"86.0846","COUNTRY_CODE":"US","TLE_LINE1":"1 45074U 20006AG  22027.57779329 -.00000566  00000-0 -19089-4 0  9990","PERIOD":"95.592"},{"GP_ID":"194740499","SEMIMAJOR_AXIS":"6925.337","APOAPSIS":"548.579","OBJECT_NAME":"STARLINK-1174","BSTAR":"0.00002255500000","INCLINATION":"53.0531","REV_AT_EPOCH":"11033","RCS_SIZE":"LARGE","MEAN_MOTION_DOT":"0.00000054","MEAN_MOTION":"15.06403809","PERIAPSIS":"545.824","MEAN_ELEMENT_THEORY":"SGP4","EPOCH":"2022-01-27T13:04:14.337696","DECAY_DATE":null,"RA_OF_ASC_NODE":"170.0161","MEAN_MOTION_DDOT":"0.0000000000000","FILE":"3284946","EPHEMERIS_TYPE":"0","ELEMENT_SET_NO":"999","ARG_OF_PERICENTER":"89.8660","COUNTRY_CODE":"US","SITE":"AFETR","TLE_LINE1":"1 45075U 20006AH  22027.54461039  .00000054  00000-0  22555-4 0  9996","PERIOD":"95.592","REF_FRAME":"TEME","OBJECT_ID":"2020-006AH","TIME_SYSTEM":"UTC","OBJECT_TYPE":"PAYLOAD","MEAN_ANOMALY":"270.2557","NORAD_CAT_ID":"45075","CENTER_NAME":"EARTH","TLE_LINE2":"2 45075  53.0531 170.0161 0001989  89.8660 270.2557 15.06403809110332","LAUNCH_DATE":"2020-01-29","CLASSIFICATION_TYPE":"U","ECCENTRICITY":"0.00019890"},{"GP_ID":"194740742","SEMIMAJOR_AXIS":"6925.374","OBJECT_NAME":"STARLINK-1180","APOAPSIS":"548.648","BSTAR":"0.00004201700000","INCLINATION":"53.0542","REV_AT_EPOCH":"11033","RCS_SIZE":"LARGE","MEAN_MOTION_DOT":"0.00000344","MEAN_MOTION":"15.06391810","PERIAPSIS":"545.829","MEAN_ELEMENT_THEORY":"SGP4","EPOCH":"2022-01-27T13:14:51.801216","DECAY_DATE":null,"RA_OF_ASC_NODE":"169.9760","MEAN_MOTION_DDOT":"0.0000000000000","FILE":"3284946","EPHEMERIS_TYPE":"0","ELEMENT_SET_NO":"999","ARG_OF_PERICENTER":"87.1667","COUNTRY_CODE":"US","SITE":"AFETR","TLE_LINE1":"1 45076U 20006AJ  22027.55198844  .00000344  00000-0  42017-4 0  9996","PERIOD":"95.593","REF_FRAME":"TEME","OBJECT_ID":"2020-006AJ","TIME_SYSTEM":"UTC","OBJECT_TYPE":"PAYLOAD","MEAN_ANOMALY":"272.9554","NORAD_CAT_ID":"45076","CENTER_NAME":"EARTH","TLE_LINE2":"2 45076  53.0542 169.9760 0002035  87.1667 272.9554 15.06391810110332","CLASSIFICATION_TYPE":"U","LAUNCH_DATE":"2020-01-29","ECCENTRICITY":"0.00020350"},{"FILE":"3284946","EPHEMERIS_TYPE":"0","ELEMENT_SET_NO":"999","ARG_OF_PERICENTER":"23.4422","COUNTRY_CODE":"US","SITE":"AFETR","TLE_LINE1":"1 45077U 20006AK  22027.51878475  .00059104  00000-0  41701-3 0  9994","PERIOD":"91.515","REF_FRAME":"TEME","OBJECT_ID":"2020-006AK","TIME_SYSTEM":"UTC","OBJECT_TYPE":"PAYLOAD","MEAN_ANOMALY":"336.6677","NORAD_CAT_ID":"45077","CENTER_NAME":"EARTH","TLE_LINE2":"2 45077  53.0563 120.7897 0001773  23.4422 336.6677 15.73505939111026","CLASSIFICATION_TYPE":"U","LAUNCH_DATE":"2020-01-29","ECCENTRICITY":"0.00017730","GP_ID":"194739498","SEMIMAJOR_AXIS":"6727.023","OBJECT_NAME":"STARLINK-1182","APOAPSIS":"350.081","BSTAR":"0.00041701000000","INCLINATION":"53.0563","REV_AT_EPOCH":"11102","RCS_SIZE":"LARGE","MEAN_MOTION_DOT":"0.00059104","MEAN_MOTION":"15.73505939","PERIAPSIS":"347.695","MEAN_ELEMENT_THEORY":"SGP4","EPOCH":"2022-01-27T12:27:03.002400","DECAY_DATE":null,"MEAN_MOTION_DDOT":"0.0000000000000","RA_OF_ASC_NODE":"120.7897"},{"CENTER_NAME":"EARTH","TLE_LINE2":"2 45078  53.0557 169.9050 0001471  84.8543 275.2613 15.06408961110329","LAUNCH_DATE":"2020-01-29","ECCENTRICITY":"0.00014710","CLASSIFICATION_TYPE":"U","REF_FRAME":"TEME","TIME_SYSTEM":"UTC","OBJECT_ID":"2020-006AL","OBJECT_TYPE":"PAYLOAD","NORAD_CAT_ID":"45078","MEAN_ANOMALY":"275.2613","ELEMENT_SET_NO":"999","SITE":"AFETR","ARG_OF_PERICENTER":"84.8543","COUNTRY_CODE":"US","PERIOD":"95.592","TLE_LINE1":"1 45078U 20006AL  22027.57041110  .00000968  00000-0  83834-4 0  9997","FILE":"3284946","EPHEMERIS_TYPE":"0","EPOCH":"2022-01-27T13:41:23.519040","DECAY_DATE":null,"RA_OF_ASC_NODE":"169.9050","MEAN_MOTION_DDOT":"0.0000000000000","MEAN_MOTION_DOT":"0.00000968","PERIAPSIS":"546.167","MEAN_MOTION":"15.06408961","MEAN_ELEMENT_THEORY":"SGP4","BSTAR":"0.00008383400000","INCLINATION":"53.0557","RCS_SIZE":"LARGE","REV_AT_EPOCH":"11032","GP_ID":"194739743","OBJECT_NAME":"STARLINK-1177","APOAPSIS":"548.205","SEMIMAJOR_AXIS":"6925.321"},{"EPOCH":"2022-01-27T13:09:33.390432","MEAN_MOTION_DDOT":"0.0000000000000","RA_OF_ASC_NODE":"169.9916","DECAY_DATE":null,"MEAN_MOTION_DOT":"0.00001648","MEAN_ELEMENT_THEORY":"SGP4","PERIAPSIS":"545.695","MEAN_MOTION":"15.06397565","INCLINATION":"53.0533","BSTAR":"0.00012956000000","RCS_SIZE":"LARGE","REV_AT_EPOCH":"11032","APOAPSIS":"548.747","OBJECT_NAME":"STARLINK-1149","SEMIMAJOR_AXIS":"6925.356","GP_ID":"194740000","TLE_LINE2":"2 45079  53.0533 169.9916 0002204  85.3310 274.7930 15.06397565110321","CENTER_NAME":"EARTH","CLASSIFICATION_TYPE":"U","LAUNCH_DATE":"2020-01-29","ECCENTRICITY":"0.00022040","TIME_SYSTEM":"UTC","OBJECT_ID":"2020-006AM","REF_FRAME":"TEME","NORAD_CAT_ID":"45079","MEAN_ANOMALY":"274.7930","OBJECT_TYPE":"PAYLOAD","SITE":"AFETR","COUNTRY_CODE":"US","ARG_OF_PERICENTER":"85.3310","ELEMENT_SET_NO":"999","TLE_LINE1":"1 45079U 20006AM  22027.54830313  .00001648  00000-0  12956-3 0  9998","PERIOD":"95.592","EPHEMERIS_TYPE":"0","FILE":"3284946"},{"LAUNCH_DATE":"2020-01-29","ECCENTRICITY":"0.00019820","CLASSIFICATION_TYPE":"U","CENTER_NAME":"EARTH","TLE_LINE2":"2 45080  53.0541 169.9584 0001982  84.4016 275.7199 15.06400133110333","OBJECT_TYPE":"PAYLOAD","MEAN_ANOMALY":"275.7199","NORAD_CAT_ID":"45080","REF_FRAME":"TEME","OBJECT_ID":"2020-006AN","TIME_SYSTEM":"UTC","TLE_LINE1":"1 45080U 20006AN  22027.55566883  .00000179  00000-0  30962-4 0  9995","PERIOD":"95.592","ELEMENT_SET_NO":"999","COUNTRY_CODE":"US","ARG_OF_PERICENTER":"84.4016","SITE":"AFETR","FILE":"3284946","EPHEMERIS_TYPE":"0","DECAY_DATE":null,"MEAN_MOTION_DDOT":"0.0000000000000","RA_OF_ASC_NODE":"169.9584","EPOCH":"2022-01-27T13:20:09.786912","MEAN_MOTION":"15.06400133","PERIAPSIS":"545.841","MEAN_ELEMENT_THEORY":"SGP4","MEAN_MOTION_DOT":"0.00000179","REV_AT_EPOCH":"11033","RCS_SIZE":"LARGE","BSTAR":"0.00003096200000","INCLINATION":"53.0541","GP_ID":"194740243","SEMIMAJOR_AXIS":"6925.348","OBJECT_NAME":"STARLINK-1153","APOAPSIS":"548.586"}];
